[{"OBJECT_NAME":"STARLINK-4693","OBJECT_ID":"2022-104T","EPOCH":"2026-03-09T17:26:59.625600","MEAN_MOTION":15.08839187,"ECCENTRICITY":0.00012731,"INCLINATION":53.2167,"RA_OF_ASC_NODE":243.7309,"ARG_OF_PERICENTER":93.7657,"MEAN_ANOMALY":266.348,"EPHEMERIS_TYPE":0,"CLASSIFICATION_TYPE":"U","NORAD_CAT_ID":53605,"ELEMENT_SET_NO":999,"REV_AT_EPOCH":19562,"BSTAR":3.2503433e-5,"MEAN_MOTION_DOT":2.29e-6,"MEAN_MOTION_DDOT":0},{"OBJECT_NAME":"ICEYE-X67","OBJECT_ID":"2025-248K","EPOCH":"2026-03-09T22:00:01.999584","MEAN_MOTION":15.09405994,"ECCENTRICITY":0.00063951,"INCLINATION":45.4045,"RA_OF_ASC_NODE":295.7576,"ARG_OF_PERICENTER":209.4534,"MEAN_ANOMALY":51.9892,"EPHEMERIS_TYPE":0,"CLASSIFICATION_TYPE":"U","NORAD_CAT_ID":66302,"ELEMENT_SET_NO":999,"REV_AT_EPOCH":578,"BSTAR":-0.000164009,"MEAN_MOTION_DOT":-2.917e-5,"MEAN_MOTION_DDOT":0}]
